     2              NAVIGATION DATA                         RINEX VERSION / TYPE
CCRINEXN V1.6.0 UX  CDDIS               03-JAN-16 23:39     PGM / RUN BY / DATE 
IGS BROADCAST EPHEMERIS FILE                                COMMENT             
    0.1118D-07 -0.7451D-08 -0.5960D-07  0.1192D-06          ION ALPHA           
    0.1167D+06 -0.2294D+06 -0.1311D+06  0.1049D+07          ION BETA            
    0.279396772385D-08 0.621724893790D-14   233472     1878 DELTA-UTC: A0,A1,T,W
    17                                                      LEAP SECONDS        
                                                            END OF HEADER       
32 16  1  3  0  0  0.0 0.680759549141D-04 0.122781784739D-10 0.000000000000D+00
    0.980000000000D+02-0.715625000000D+01 0.467305172336D-08 0.278372313514D+01
   -0.391155481339D-06 0.113663113443D-01 0.932998955250D-05 0.515363883591D+04
    0.000000000000D+00-0.165775418282D-06 0.146885715509D+01-0.260770320892D-07
    0.946398752415D+00 0.191625000000D+03 0.205186319451D+00-0.792818699580D-08
   -0.646455527997D-10 0.100000000000D+01 0.187800000000D+04 0.000000000000D+00
    0.200000000000D+01 0.000000000000D+00-0.325962901115D-08 0.980000000000D+02
    0.000000000000D+00 0.000000000000D+00 0.000000000000D+00 0.000000000000D+00
19 16  1  3  1 59 44.0-0.524196773768D-03-0.227373675443D-12 0.000000000000D+00
    0.290000000000D+02-0.625000000000D+01 0.427374935441D-08-0.252188713294D+01
   -0.391155481339D-06 0.112800588831D-01 0.723451375961D-05 0.515518613243D+04
    0.718400000000D+04 0.838190317154D-07-0.610413187897D+00-0.126659870148D-06
    0.972118356129D+00 0.245687500000D+03 0.668411707448D+00-0.783675524474D-08
    0.267511152119D-09 0.100000000000D+01 0.187800000000D+04 0.000000000000D+00
    0.200000000000D+01 0.000000000000D+00-0.149011611938D-07 0.290000000000D+02
   -0.900000000000D+02 0.400000000000D+01 0.000000000000D+00 0.000000000000D+00
20 16  1  3  1 59 44.0 0.382948201150D-03 0.272848410532D-11 0.000000000000D+00
    0.190000000000D+02-0.163437500000D+02 0.524093259159D-08-0.740396131991D+00
   -0.702217221260D-06 0.500504020601D-02 0.937841832638D-05 0.515368034935D+04
    0.718400000000D+04-0.372529029846D-08 0.130978032968D+01 0.540167093277D-07
    0.925843025695D+00 0.180375000000D+03 0.130583858469D+01-0.841535053313D-08
   -0.832177520677D-10 0.000000000000D+00 0.187800000000D+04 0.000000000000D+00
    0.200000000000D+01 0.000000000000D+00-0.838190317154D-08 0.190000000000D+02
    0.318000000000D+04 0.400000000000D+01 0.000000000000D+00 0.000000000000D+00
22 16  1  3  1 59 44.0 0.415396876633D-03-0.363797880709D-11 0.000000000000D+00
    0.270000000000D+02-0.206562500000D+02 0.541593988135D-08 0.790801784868D+00
   -0.990927219391D-06 0.751343136653D-02 0.913999974728D-05 0.515510936356D+04
    0.718400000000D+04-0.143423676491D-06 0.136262060593D+01-0.260770320892D-07
    0.922434729395D+00 0.184281250000D+03-0.202759989356D+01-0.851392606777D-08
   -0.193936649668D-09 0.000000000000D+00 0.187800000000D+04 0.000000000000D+00
    0.200000000000D+01 0.000000000000D+00-0.176951289177D-07 0.270000000000D+02
    0.543000000000D+04 0.400000000000D+01 0.000000000000D+00 0.000000000000D+00
27 16  1  3  1 59 44.0 0.499421730638D-04 0.341060513165D-11 0.000000000000D+00
    0.110000000000D+02-0.162187500000D+02 0.429767901558D-08-0.979765538024D-02
   -0.935047864914D-06 0.293577706907D-02 0.755488872528D-05 0.515371529961D+04
    0.718400000000D+04 0.260770320892D-07-0.708551236152D+00 0.130385160446D-07
    0.969928752512D+00 0.236562500000D+03 0.229706975486D+00-0.800854787388D-08
    0.121790787361D-09 0.100000000000D+01 0.187800000000D+04 0.000000000000D+00
    0.200000000000D+01 0.000000000000D+00 0.186264514923D-08 0.110000000000D+02
    0.459600000000D+04 0.400000000000D+01 0.000000000000D+00 0.000000000000D+00
32 16  1  3  1 59 44.0 0.681737437844D-04 0.123918653117D-10 0.000000000000D+00
    0.300000000000D+01-0.130000000000D+02 0.473341145130D-08-0.245162169566D+01
   -0.707805156708D-06 0.113669501152D-01 0.942684710026D-05 0.515363757133D+04
    0.718400000000D+04-0.126659870148D-06 0.146879970044D+01-0.162050127983D-06
    0.946398097028D+00 0.190156250000D+03 0.205215810416D+00-0.800854787388D-08
   -0.157149403046D-10 0.100000000000D+01 0.187800000000D+04 0.000000000000D+00
    0.200000000000D+01 0.000000000000D+00-0.325962901115D-08 0.300000000000D+01
    0.423000000000D+04 0.400000000000D+01 0.000000000000D+00 0.000000000000D+00
 1 16  1  3  2  0  0.0 0.818306580186D-05 0.909494701773D-12 0.000000000000D+00
    0.880000000000D+02-0.299062500000D+02 0.452804575414D-08-0.217633916197D+01
   -0.150501728058D-05 0.493562314659D-02 0.648200511932D-05 0.515365323067D+04
    0.720000000000D+04 0.186264514923D-08 0.348681044102D+00-0.521540641785D-07
    0.963682238605D+00 0.256687500000D+03 0.485607943909D+00-0.803497754621D-08
    0.921466954226D-10 0.100000000000D+01 0.187800000000D+04 0.000000000000D+00
    0.200000000000D+01 0.000000000000D+00 0.512227416039D-08 0.880000000000D+02
    0.180000000000D+02 0.400000000000D+01 0.000000000000D+00 0.000000000000D+00
 2 16  1  3  2  0  0.0 0.598770100623D-03 0.454747350886D-12 0.000000000000D+00
    0.320000000000D+02-0.297812500000D+02 0.506985403691D-08-0.163789291089D+01
   -0.148825347424D-05 0.151906147366D-01 0.578723847866D-05 0.515369085693D+04
    0.720000000000D+04 0.346451997757D-06 0.306321921961D+00-0.819563865662D-07
    0.942414059077D+00 0.256125000000D+03-0.219230883069D+01-0.818034074403D-08
    0.728601777760D-10 0.100000000000D+01 0.187800000000D+04 0.000000000000D+00
    0.200000000000D+01 0.000000000000D+00-0.204890966415D-07 0.320000000000D+02
    0.000000000000D+00 0.400000000000D+01 0.000000000000D+00 0.000000000000D+00
 3 16  1  3  2  0  0.0-0.638654455543D-05-0.511590769747D-11 0.000000000000D+00
    0.780000000000D+02-0.104687500000D+02 0.446768609706D-08 0.665198719488D+00
   -0.512227416038D-06 0.325582106598D-03 0.902079045773D-05 0.515379603386D+04
    0.720000000000D+04 0.111758708954D-07 0.138972533998D+01 0.316649675369D-07
    0.958837386009D+00 0.204781250000D+03 0.289652680987D+01-0.797818946647D-08
   -0.721458623076D-10 0.100000000000D+01 0.187800000000D+04 0.000000000000D+00
    0.200000000000D+01 0.000000000000D+00 0.186264514923D-08 0.780000000000D+02
    0.180000000000D+02 0.400000000000D+01 0.000000000000D+00 0.000000000000D+00
 4 16  1  3  2  0  0.0 0.793817453086D-04 0.488853402203D-11 0.000000000000D+00
    0.700000000000D+02 0.124687500000D+02 0.488520348833D-08-0.285662537986D+01
    0.687316060066D-06 0.164305325598D-02 0.494159758091D-05 0.515365355492D+04
    0.720000000000D+04-0.111758708954D-07-0.272899681369D+01 0.745058059692D-08
    0.954015845012D+00 0.283468750000D+03 0.309661404496D+01-0.828320217148D-08
   -0.921466954226D-10 0.100000000000D+01 0.187800000000D+04 0.000000000000D+00
    0.200000000000D+01 0.000000000000D+00 0.325962901115D-08 0.700000000000D+02
    0.000000000000D+00 0.000000000000D+00 0.000000000000D+00 0.000000000000D+00
 5 16  1  3  2  0  0.0-0.159024260938D-03 0.363797880709D-11 0.000000000000D+00
    0.690000000000D+02-0.909375000000D+01 0.476626996285D-08 0.788762125966D+00
   -0.376254320145D-06 0.458600232378D-02 0.949949026108D-05 0.515370860863D+04
    0.720000000000D+04-0.186264514923D-07 0.137976539578D+01 0.707805156708D-07
    0.945967895246D+00 0.187375000000D+03 0.485372494558D+00-0.812248119109D-08
   -0.158935191717D-09 0.000000000000D+00 0.187800000000D+04 0.000000000000D+00
    0.200000000000D+01 0.000000000000D+00-0.107102096081D-07 0.690000000000D+02
    0.000000000000D+00 0.400000000000D+01 0.000000000000D+00 0.000000000000D+00
 6 16  1  3  2  0  0.0 0.122769270092D-03 0.625277607469D-11 0.000000000000D+00
    0.610000000000D+02-0.318437500000D+02 0.465197948790D-08-0.546052977435D+00
   -0.165589153767D-05 0.222726259381D-03 0.643730163574D-05 0.515360577011D+04
    0.720000000000D+04 0.372529029846D-07 0.340229481089D+00 0.372529029846D-08
    0.963539377340D+00 0.258406250000D+03-0.270340674114D+01-0.812569561070D-08
    0.714315468392D-12 0.100000000000D+01 0.187800000000D+04 0.000000000000D+00
    0.200000000000D+01 0.000000000000D+00 0.419095158577D-08 0.610000000000D+02
    0.180000000000D+02 0.400000000000D+01 0.000000000000D+00 0.000000000000D+00
 7 16  1  3  2  0  0.0 0.475184060633D-03-0.136424205266D-11 0.000000000000D+00
    0.430000000000D+02 0.197187500000D+02 0.451375944477D-08-0.285874249442D+01
    0.961124897003D-06 0.900842342526D-02 0.501982867718D-05 0.515368308830D+04
    0.720000000000D+04-0.819563865662D-07-0.277519997253D+01-0.173225998878D-06
    0.968251319440D+00 0.289156250000D+03-0.267882453575D+01-0.804283501636D-08
   -0.746459664470D-10 0.100000000000D+01 0.187800000000D+04 0.000000000000D+00
    0.280000000000D+01 0.000000000000D+00-0.111758708954D-07 0.430000000000D+02
    0.180000000000D+02 0.400000000000D+01 0.000000000000D+00 0.000000000000D+00
 8 16  1  3  2  0  0.0-0.185831449926D-04-0.147792889038D-11 0.000000000000D+00
    0.870000000000D+02-0.170625000000D+02 0.441018370185D-08 0.127604242223D+01
   -0.100210309029D-05 0.170245009940D-02 0.762380659580D-05 0.515363069344D+04
    0.720000000000D+04-0.353902578354D-07-0.710092585658D+00-0.502914190292D-07
    0.961845068045D+00 0.234531250000D+03-0.152567599944D+01-0.805854995667D-08
    0.126790995640D-09 0.100000000000D+01 0.187800000000D+04 0.000000000000D+00
    0.280000000000D+01 0.000000000000D+00 0.465661287308D-08 0.870000000000D+02
    0.676800000000D+04 0.400000000000D+01 0.000000000000D+00 0.000000000000D+00
